[{"OBJECT_NAME":"WNISAT 1R","OBJECT_ID":"2017-042L","EPOCH":"2026-03-09T20:41:10.613760","MEAN_MOTION":15.01153186,"ECCENTRICITY":0.00133015,"INCLINATION":97.4515,"RA_OF_ASC_NODE":228.7079,"ARG_OF_PERICENTER":131.3338,"MEAN_ANOMALY":228.9034,"EPHEMERIS_TYPE":0,"CLASSIFICATION_TYPE":"U","NORAD_CAT_ID":42835,"ELEMENT_SET_NO":999,"REV_AT_EPOCH":47160,"BSTAR":0.00037839839,"MEAN_MOTION_DOT":4.802e-5,"MEAN_MOTION_DDOT":0},{"OBJECT_NAME":"STARLINK-35838","OBJECT_ID":"2025-280R","EPOCH":"2026-03-09T22:15:11.610144","MEAN_MOTION":14.98331397,"ECCENTRICITY":0.00026675,"INCLINATION":70.0018,"RA_OF_ASC_NODE":333.7677,"ARG_OF_PERICENTER":270.2189,"MEAN_ANOMALY":89.8665,"EPHEMERIS_TYPE":0,"CLASSIFICATION_TYPE":"U","NORAD_CAT_ID":66836,"ELEMENT_SET_NO":999,"REV_AT_EPOCH":1611,"BSTAR":0.00041565979,"MEAN_MOTION_DOT":4.87e-5,"MEAN_MOTION_DDOT":0}]
